CRE (WAAS/PRN 138)      
1 28868U 05036A   22361.52321896 -.00000072  00000+0  00000+0 0  9994
2 28868   1.0512  91.8714 0000479 159.5136 285.6337  1.00270942 33749
IOR-W (EGNOS/PRN 126)   
1 28899U 05044A   22361.50474376  .00000011  00000+0  00000+0 0  9999
2 28899   3.6549  39.0506 0002795 237.9392  64.5652  1.00270625 62803
QZS-1 (QZSS/PRN 183)    
1 37158U 10045A   22361.23078366 -.00000135  00000+0  00000+0 0  9991
2 37158  42.5439 130.7321 0756908 270.4072 274.3626  1.00258175 45027
GSAT-8 (GAGAN/PRN 127)  
1 37605U 11022A   22361.17688252  .00000087  00000+0  00000+0 0  9993
2 37605   0.0163 312.6748 0008505 310.4700 311.2541  1.00272506 40506
LUCH 5A (SDCM/PRN 140)  
1 37951U 11074B   22360.03187255 -.00000045  00000+0  00000+0 0  9990
2 37951   5.4992  94.1058 0002629 154.8527  23.9120  1.00273602 40466
SES-5 (EGNOS/PRN 136)   
1 38652U 12036A   22361.27776569  .00000036  00000+0  00000+0 0  9996
2 38652   0.0562 297.1699 0001812 336.2048 287.3362  1.00271006 31776
GSAT-10 (GAGAN/PRN 128) 
1 38779U 12051B   22361.50857903 -.00000163  00000+0  00000+0 0  9993
2 38779   0.0820  98.9789 0004568 172.9762  90.1013  1.00270228 37403
LUCH 5B (SDCM/PRN 125)  
1 38977U 12061A   22361.41705565 -.00000137  00000+0  00000+0 0  9991
2 38977   7.7090  61.1516 0002360 143.4422  25.0931  1.00271352 37461
ASTRA 5B (EGNOS/PRN 123)
1 39617U 14011B   22361.49829355  .00000157  00000+0  00000+0 0  9993
2 39617   0.0328  16.1954 0003296 250.9231  39.6955  1.00269482 31956
LUCH 5V (SDCM/PRN 141)  
1 39727U 14023A   22361.51084532 -.00000268  00000+0  00000+0 0  9995
2 39727   1.9649  77.1593 0002524 218.7732  78.5867  1.00275533 31645
GSAT-15 (GAGAN/PRN 139) 
1 41028U 15065A   22361.58627759 -.00000256  00000+0  00000+0 0  9997
2 41028   0.0138  23.0247 0001752 219.2022 158.3915  1.00268947 26096
E 117 W B (WAAS/PRN 131)
1 41589U 16038B   22361.25353376 -.00000008  00000+0  00000+0 0  9990
2 41589   0.0074 165.2188 0000450 185.2161  79.5419  1.00265086 23956
SES-15 (WAAS/PRN 133)   
1 42709U 17026A   22360.96419838  .00000063  00000+0  00000+0 0  9996
2 42709   0.0161   0.7711 0000895 197.9542 114.6703  1.00271962 21426
QZS-2 (QZSS/PRN 184)    
1 42738U 17028A   22361.59122715 -.00000175  00000+0  00000+0 0  9990
2 42738  41.4520 261.4334 0756688 269.5562 278.7054  1.00283090 20435
QZS-3 (QZSS/PRN 189)    
1 42917U 17048A   22361.56854723 -.00000346  00000+0  00000+0 0  9999
2 42917   0.0574 196.6531 0002387  87.6628 143.3983  1.00268603 19545
QZS-4 (QZSS/PRN 185)    
1 42965U 17062A   22361.37827209 -.00000342  00000+0  00000+0 0  9992
2 42965  40.7199 359.6426 0750643 271.7140  96.4000  1.00251790 19105
GALAXY 30 (WAAS/PRN 135)
1 46114U 20056C   22361.51261705  .00000039  00000+0  00000+0 0  9990
2 46114   0.0171  27.7865 0001939 246.2933 241.4122  1.00271631  8581
